{
    "links": {
        "self": "http://www.neowsapp.com/rest/v1/neo/3709962?api_key=iIulBulltgU6a56xZRHN4H3l9WmuAYTsLGpBGhQ2"
    },
    "id": "3709962",
    "neo_reference_id": "3709962",
    "name": "(2015 CC1)",
    "designation": "2015 CC1",
    "nasa_jpl_url": "http://ssd.jpl.nasa.gov/sbdb.cgi?sstr=3709962",
    "absolute_magnitude_h": 23.8,
    "estimated_diameter": {
        "kilometers": {
            "estimated_diameter_min": 0.046190746,
            "estimated_diameter_max": 0.1032856481
        },
        "meters": {
            "estimated_diameter_min": 46.1907460282,
            "estimated_diameter_max": 103.2856480504
        },
        "miles": {
            "estimated_diameter_min": 0.0287015901,
            "estimated_diameter_max": 0.0641787064
        },
        "feet": {
            "estimated_diameter_min": 151.544447199,
            "estimated_diameter_max": 338.8636855496
        }
    },
    "is_potentially_hazardous_asteroid": false,
    "close_approach_data": [
        {
            "close_approach_date": "2013-02-21",
            "close_approach_date_full": "2013-Feb-21 16:19",
            "epoch_date_close_approach": 1361463540000,
            "relative_velocity": {
                "kilometers_per_second": "26.7159015431",
                "kilometers_per_hour": "96177.2455552889",
                "miles_per_hour": "59760.8001618405"
            },
            "miss_distance": {
                "astronomical": "0.4342207828",
                "lunar": "168.9118845092",
                "kilometers": "64958504.216612636",
                "miles": "40363342.8471249368"
            },
            "orbiting_body": "Earth"
        },
        {
            "close_approach_date": "2015-01-25",
            "close_approach_date_full": "2015-Jan-25 02:15",
            "epoch_date_close_approach": 1422152100000,
            "relative_velocity": {
                "kilometers_per_second": "12.5560951166",
                "kilometers_per_hour": "45201.9424196416",
                "miles_per_hour": "28086.7291662489"
            },
            "miss_distance": {
                "astronomical": "0.0554595621",
                "lunar": "21.5737696569",
                "kilometers": "8296632.361292727",
                "miles": "5155288.2954125526"
            },
            "orbiting_body": "Earth"
        }
    ],
    "orbital_data": {
        "orbit_id": "5",
        "orbit_determination_date": "2017-04-06 08:35:46",
        "first_observation_date": "2015-02-09",
        "last_observation_date": "2015-02-25",
        "data_arc_in_days": 16,
        "observations_used": 22,
        "orbit_uncertainty": "8",
        "minimum_orbit_intersection": ".0396775",
        "jupiter_tisserand_invariant": "4.297",
        "epoch_osculation": "2457069.5",
        "eccentricity": ".5144500745654719",
        "semi_major_axis": "1.547001773865478",
        "inclination": "3.600050828782092",
        "ascending_node_longitude": "88.60374378113949",
        "orbital_period": "702.8046793184767",
        "perihelion_distance": ".7511465959474655",
        "perihelion_argument": "327.8517939619095",
        "aphelion_distance": "2.34285695178349",
        "perihelion_time": "2457002.245070513593",
        "mean_anomaly": "34.4502182862316",
        "mean_motion": ".5122333567117097",
        "equinox": "J2000",
        "orbit_class": {
            "orbit_class_type": "APO",
            "orbit_class_description": "Near-Earth asteroid orbits which cross the Earth’s orbit similar to that of 1862 Apollo",
            "orbit_class_range": "a (semi-major axis) > 1.0 AU; q (perihelion) < 1.017 AU"
        }
    },
    "is_sentry_object": false
}